start=new Date('2022-09-15T00:00:00.000Z').valueOf();
sats=[{"TLE_LINE2":"2 44758  53.0544 177.8742 0001305  96.1494 263.9644 15.06393465156445","TIME_SYSTEM":"UTC","OBJECT_ID":"2019-074AX","SEMIMAJOR_AXIS":"6925.369","CENTER_NAME":"EARTH","APOAPSIS":"548.137","PERIOD":"95.593","MEAN_MOTION":"15.06393465","MEAN_ANOMALY":"263.9644","LAUNCH_DATE":"2019-11-11","NORAD_CAT_ID":"44758","OBJECT_TYPE":"PAYLOAD","MEAN_MOTION_DDOT":"0.0000000000000","BSTAR":"-0.00002255500000","MEAN_MOTION_DOT":"-0.00000617","PERIAPSIS":"546.330","GP_ID":"212609308","SITE":"AFETR","TLE_LINE1":"1 44758U 19074AX  22257.48089328 -.00000617  00000-0 -22555-4 0  9998","ECCENTRICITY":"0.00013050","INCLINATION":"53.0544","EPHEMERIS_TYPE":"0","COUNTRY_CODE":"US","CLASSIFICATION_TYPE":"U","FILE":"3574287","MEAN_ELEMENT_THEORY":"SGP4","EPOCH":"2022-09-14T11:32:29.179392","REF_FRAME":"TEME","DECAY_DATE":null,"RCS_SIZE":"LARGE","REV_AT_EPOCH":"15644","RA_OF_ASC_NODE":"177.8742","ARG_OF_PERICENTER":"96.1494","ELEMENT_SET_NO":"999","OBJECT_NAME":"STARLINK-1053"},{"CENTER_NAME":"EARTH","APOAPSIS":"548.180","PERIOD":"95.593","MEAN_MOTION":"15.06391303","MEAN_ANOMALY":"249.9123","LAUNCH_DATE":"2019-11-11","NORAD_CAT_ID":"44759","OBJECT_TYPE":"PAYLOAD","TLE_LINE2":"2 44759  53.0555 176.0778 0001357 110.2012 249.9123 15.06391303154149","TIME_SYSTEM":"UTC","SEMIMAJOR_AXIS":"6925.375","OBJECT_ID":"2019-074AY","COUNTRY_CODE":"US","EPHEMERIS_TYPE":"0","CLASSIFICATION_TYPE":"U","MEAN_ELEMENT_THEORY":"SGP4","FILE":"3574287","EPOCH":"2022-09-14T20:39:10.023552","DECAY_DATE":null,"REF_FRAME":"TEME","RCS_SIZE":"LARGE","ARG_OF_PERICENTER":"110.2012","REV_AT_EPOCH":"15414","RA_OF_ASC_NODE":"176.0778","ELEMENT_SET_NO":"999","OBJECT_NAME":"STARLINK-1054","MEAN_MOTION_DDOT":"0.0000000000000","BSTAR":"0.00011045000000","MEAN_MOTION_DOT":"0.00001364","GP_ID":"212609056","PERIAPSIS":"546.300","SITE":"AFETR","TLE_LINE1":"1 44759U 19074AY  22257.86053268  .00001364  00000-0  11045-3 0  9994","ECCENTRICITY":"0.00013570","INCLINATION":"53.0555"},{"COUNTRY_CODE":"US","EPHEMERIS_TYPE":"0","CLASSIFICATION_TYPE":"U","MEAN_ELEMENT_THEORY":"SGP4","FILE":"3574287","EPOCH":"2022-09-14T12:20:14.762400","DECAY_DATE":null,"REF_FRAME":"TEME","RCS_SIZE":"LARGE","ARG_OF_PERICENTER":"71.2656","RA_OF_ASC_NODE":"177.6475","REV_AT_EPOCH":"15645","ELEMENT_SET_NO":"999","OBJECT_NAME":"STARLINK-1055","MEAN_MOTION_DDOT":"0.0000000000000","BSTAR":"0.00000421870000","MEAN_MOTION_DOT":"-0.00000219","PERIAPSIS":"546.281","GP_ID":"212609807","SITE":"AFETR","TLE_LINE1":"1 44760U 19074AZ  22257.51405975 -.00000219  00000-0  42187-5 0  9996","ECCENTRICITY":"0.00013850","INCLINATION":"53.0547","CENTER_NAME":"EARTH","APOAPSIS":"548.200","PERIOD":"95.593","MEAN_MOTION":"15.06391166","MEAN_ANOMALY":"288.8483","LAUNCH_DATE":"2019-11-11","NORAD_CAT_ID":"44760","OBJECT_TYPE":"PAYLOAD","TIME_SYSTEM":"UTC","TLE_LINE2":"2 44760  53.0547 177.6475 0001385  71.2656 288.8483 15.06391166156458","SEMIMAJOR_AXIS":"6925.376","OBJECT_ID":"2019-074AZ"},{"CENTER_NAME":"EARTH","APOAPSIS":"548.198","MEAN_MOTION":"15.06391900","PERIOD":"95.593","NORAD_CAT_ID":"44761","LAUNCH_DATE":"2019-11-11","OBJECT_TYPE":"PAYLOAD","MEAN_ANOMALY":"285.4191","OBJECT_ID":"2019-074BA","SEMIMAJOR_AXIS":"6925.373","TIME_SYSTEM":"UTC","TLE_LINE2":"2 44761  53.0545 176.1097 0001386  74.6951 285.4191 15.06391900156508","EPOCH":"2022-09-14T20:33:52.035264","FILE":"3574287","MEAN_ELEMENT_THEORY":"SGP4","RCS_SIZE":"LARGE","REF_FRAME":"TEME","DECAY_DATE":null,"COUNTRY_CODE":"US","EPHEMERIS_TYPE":"0","CLASSIFICATION_TYPE":"U","ELEMENT_SET_NO":"999","OBJECT_NAME":"STARLINK-1056","RA_OF_ASC_NODE":"176.1097","ARG_OF_PERICENTER":"74.6951","REV_AT_EPOCH":"15650","MEAN_MOTION_DOT":"0.00000588","BSTAR":"0.00005834600000","PERIAPSIS":"546.279","GP_ID":"212610048","MEAN_MOTION_DDOT":"0.0000000000000","INCLINATION":"53.0545","TLE_LINE1":"1 44761U 19074BA  22257.85685226  .00000588  00000-0  58346-4 0  9994","SITE":"AFETR","ECCENTRICITY":"0.00013860"},{"SEMIMAJOR_AXIS":"6925.366","OBJECT_ID":"2019-074BB","TIME_SYSTEM":"UTC","TLE_LINE2":"2 44762  53.0542 157.8861 0001217  91.4255 268.6874 15.06394454156719","APOAPSIS":"548.073","CENTER_NAME":"EARTH","PERIOD":"95.592","MEAN_MOTION":"15.06394454","LAUNCH_DATE":"2019-11-11","NORAD_CAT_ID":"44762","OBJECT_TYPE":"PAYLOAD","MEAN_ANOMALY":"268.6874","BSTAR":"0.00010441000000","MEAN_MOTION_DOT":"0.00001274","PERIAPSIS":"546.388","GP_ID":"212608809","MEAN_MOTION_DDOT":"0.0000000000000","INCLINATION":"53.0542","SITE":"AFETR","TLE_LINE1":"1 44762U 19074BB  22257.46061203  .00001274  00000-0  10441-3 0  9991","ECCENTRICITY":"0.00012170","FILE":"3574287","MEAN_ELEMENT_THEORY":"SGP4","EPOCH":"2022-09-14T11:03:16.879392","REF_FRAME":"TEME","DECAY_DATE":null,"RCS_SIZE":"LARGE","EPHEMERIS_TYPE":"0","COUNTRY_CODE":"US","CLASSIFICATION_TYPE":"U","ELEMENT_SET_NO":"999","OBJECT_NAME":"STARLINK-1057","RA_OF_ASC_NODE":"157.8861","ARG_OF_PERICENTER":"91.4255","REV_AT_EPOCH":"15671"},{"SEMIMAJOR_AXIS":"6925.352","OBJECT_ID":"2019-074BC","TLE_LINE2":"2 44763  53.0524 176.2838 0001176  88.3774 271.7349 15.06398874156491","TIME_SYSTEM":"UTC","PERIOD":"95.592","MEAN_MOTION":"15.06398874","CENTER_NAME":"EARTH","APOAPSIS":"548.031","OBJECT_TYPE":"PAYLOAD","LAUNCH_DATE":"2019-11-11","NORAD_CAT_ID":"44763","MEAN_ANOMALY":"271.7349","GP_ID":"212609556","PERIAPSIS":"546.403","BSTAR":"-0.00002915300000","MEAN_MOTION_DOT":"-0.00000716","MEAN_MOTION_DDOT":"0.0000000000000","INCLINATION":"53.0524","ECCENTRICITY":"0.00011760","SITE":"AFETR","TLE_LINE1":"1 44763U 19074BC  22257.81166603 -.00000716  00000-0 -29153-4 0  9994","REF_FRAME":"TEME","DECAY_DATE":null,"RCS_SIZE":"LARGE","MEAN_ELEMENT_THEORY":"SGP4","FILE":"3574287","EPOCH":"2022-09-14T19:28:47.944992","CLASSIFICATION_TYPE":"U","EPHEMERIS_TYPE":"0","COUNTRY_CODE":"US","OBJECT_NAME":"STARLINK-1058","ELEMENT_SET_NO":"999","ARG_OF_PERICENTER":"88.3774","RA_OF_ASC_NODE":"176.2838","REV_AT_EPOCH":"15649"},{"INCLINATION":"53.0543","SITE":"AFETR","TLE_LINE1":"1 44764U 19074BD  22257.45972211  .00022152  00000-0  14192-2 0  9996","ECCENTRICITY":"0.00018640","BSTAR":"0.00141920000000","MEAN_MOTION_DOT":"0.00022152","GP_ID":"212610305","PERIAPSIS":"539.551","MEAN_MOTION_DDOT":"0.0000000000000","ELEMENT_SET_NO":"999","OBJECT_NAME":"STARLINK-1059","ARG_OF_PERICENTER":"29.8719","RA_OF_ASC_NODE":"157.2391","REV_AT_EPOCH":"15672","FILE":"3574287","MEAN_ELEMENT_THEORY":"SGP4","EPOCH":"2022-09-14T11:01:59.990304","DECAY_DATE":null,"REF_FRAME":"TEME","RCS_SIZE":"LARGE","COUNTRY_CODE":"US","EPHEMERIS_TYPE":"0","CLASSIFICATION_TYPE":"U","SEMIMAJOR_AXIS":"6918.975","OBJECT_ID":"2019-074BD","TLE_LINE2":"2 44764  53.0543 157.2391 0001864  29.8719 330.2377 15.08481851156727","TIME_SYSTEM":"UTC","LAUNCH_DATE":"2019-11-11","NORAD_CAT_ID":"44764","OBJECT_TYPE":"PAYLOAD","MEAN_ANOMALY":"330.2377","APOAPSIS":"542.130","CENTER_NAME":"EARTH","PERIOD":"95.460","MEAN_MOTION":"15.08481851"},{"NORAD_CAT_ID":"44765","LAUNCH_DATE":"2019-11-11","OBJECT_TYPE":"PAYLOAD","MEAN_ANOMALY":"274.8961","APOAPSIS":"548.314","CENTER_NAME":"EARTH","MEAN_MOTION":"15.06388610","PERIOD":"95.593","SEMIMAJOR_AXIS":"6925.383","OBJECT_ID":"2019-074BE","TIME_SYSTEM":"UTC","TLE_LINE2":"2 44765  53.0559 156.3243 0001538  85.2203 274.8961 15.06388610156766","ELEMENT_SET_NO":"999","OBJECT_NAME":"STARLINK-1060","REV_AT_EPOCH":"15676","ARG_OF_PERICENTER":"85.2203","RA_OF_ASC_NODE":"156.3243","EPOCH":"2022-09-14T19:22:12.801504","MEAN_ELEMENT_THEORY":"SGP4","FILE":"3574287","RCS_SIZE":"LARGE","DECAY_DATE":null,"REF_FRAME":"TEME","EPHEMERIS_TYPE":"0","COUNTRY_CODE":"US","CLASSIFICATION_TYPE":"U","INCLINATION":"53.0559","TLE_LINE1":"1 44765U 19074BE  22257.80709261  .00000313  00000-0  39928-4 0  9990","SITE":"AFETR","ECCENTRICITY":"0.00015380","MEAN_MOTION_DOT":"0.00000313","BSTAR":"0.00003992800000","GP_ID":"212610547","PERIAPSIS":"546.183","MEAN_MOTION_DDOT":"0.0000000000000"},{"CLASSIFICATION_TYPE":"U","COUNTRY_CODE":"US","EPHEMERIS_TYPE":"0","RCS_SIZE":"LARGE","REF_FRAME":"TEME","DECAY_DATE":null,"EPOCH":"2022-09-14T20:55:05.512512","FILE":"3574287","MEAN_ELEMENT_THEORY":"SGP4","RA_OF_ASC_NODE":"176.0445","ARG_OF_PERICENTER":"73.1811","REV_AT_EPOCH":"15650","OBJECT_NAME":"STARLINK-1061","ELEMENT_SET_NO":"999","MEAN_MOTION_DDOT":"0.0000000000000","PERIAPSIS":"546.220","GP_ID":"212609309","MEAN_MOTION_DOT":"-0.00000634","BSTAR":"-0.00002366200000","ECCENTRICITY":"0.00014740","TLE_LINE1":"1 44766U 19074BF  22257.87159158 -.00000634  00000-0 -23662-4 0  9998","SITE":"AFETR","INCLINATION":"53.0536","MEAN_MOTION":"15.06391235","PERIOD":"95.593","APOAPSIS":"548.261","CENTER_NAME":"EARTH","MEAN_ANOMALY":"286.9339","OBJECT_TYPE":"PAYLOAD","NORAD_CAT_ID":"44766","LAUNCH_DATE":"2019-11-11","TIME_SYSTEM":"UTC","TLE_LINE2":"2 44766  53.0536 176.0445 0001474  73.1811 286.9339 15.06391235156507","SEMIMAJOR_AXIS":"6925.375","OBJECT_ID":"2019-074BF"},{"SITE":"AFETR","TLE_LINE1":"1 44767U 19074BG  22257.79692938 -.00000881  00000-0 -40271-4 0  9997","ECCENTRICITY":"0.00013470","INCLINATION":"53.0557","MEAN_MOTION_DDOT":"0.0000000000000","BSTAR":"-0.00004027100000","MEAN_MOTION_DOT":"-0.00000881","PERIAPSIS":"546.312","GP_ID":"212609057","REV_AT_EPOCH":"15649","ARG_OF_PERICENTER":"67.0782","RA_OF_ASC_NODE":"176.3659","ELEMENT_SET_NO":"999","OBJECT_NAME":"STARLINK-1062","EPHEMERIS_TYPE":"0","COUNTRY_CODE":"US","CLASSIFICATION_TYPE":"U","MEAN_ELEMENT_THEORY":"SGP4","FILE":"3574287","EPOCH":"2022-09-14T19:07:34.698432","REF_FRAME":"TEME","DECAY_DATE":null,"RCS_SIZE":"LARGE","TIME_SYSTEM":"UTC","TLE_LINE2":"2 44767  53.0557 176.3659 0001347  67.0782 293.0349 15.06389903156496","OBJECT_ID":"2019-074BG","SEMIMAJOR_AXIS":"6925.380","MEAN_ANOMALY":"293.0349","LAUNCH_DATE":"2019-11-11","NORAD_CAT_ID":"44767","OBJECT_TYPE":"PAYLOAD","CENTER_NAME":"EARTH","APOAPSIS":"548.177","PERIOD":"95.593","MEAN_MOTION":"15.06389903"}];
